[{"OBJECT_NAME":"STARLINK-2236","OBJECT_ID":"2021-041AF","EPOCH":"2026-03-09T11:48:37.768320","MEAN_MOTION":15.06399512,"ECCENTRICITY":0.0001256,"INCLINATION":53.0546,"RA_OF_ASC_NODE":97.6704,"ARG_OF_PERICENTER":103.2963,"MEAN_ANOMALY":256.8166,"EPHEMERIS_TYPE":0,"CLASSIFICATION_TYPE":"U","NORAD_CAT_ID":48582,"ELEMENT_SET_NO":999,"REV_AT_EPOCH":26566,"BSTAR":8.2603477e-5,"MEAN_MOTION_DOT":9.49e-6,"MEAN_MOTION_DDOT":0},{"OBJECT_NAME":"CP5","OBJECT_ID":"2012-048F","EPOCH":"2026-03-09T13:13:18.209280","MEAN_MOTION":15.25131456,"ECCENTRICITY":0.0097184,"INCLINATION":64.6452,"RA_OF_ASC_NODE":121.238,"ARG_OF_PERICENTER":206.221,"MEAN_ANOMALY":153.3981,"EPHEMERIS_TYPE":0,"CLASSIFICATION_TYPE":"U","NORAD_CAT_ID":38763,"ELEMENT_SET_NO":999,"REV_AT_EPOCH":10155,"BSTAR":0.00057686,"MEAN_MOTION_DOT":0.00016437,"MEAN_MOTION_DDOT":0}]
